OBJECT_NAME,OBJECT_ID,EPOCH,MEAN_MOTION,ECCENTRICITY,INCLINATION,RA_OF_ASC_NODE,ARG_OF_PERICENTER,MEAN_ANOMALY,EPHEMERIS_TYPE,CLASSIFICATION_TYPE,NORAD_CAT_ID,ELEMENT_SET_NO,REV_AT_EPOCH,BSTAR,MEAN_MOTION_DOT,MEAN_MOTION_DDOT
GSAT0225 (GALILEO 29),2024-079A,2026-07-03T13:11:29.385888,1.70474096,.00011164,55.1282,100.6235,300.3188,247.3737,0,U,59598,999,1359,0,-.5E-7,0
GSAT0227 (GALILEO 30),2024-079C,2026-07-02T06:05:53.832192,1.70474094,.000228,55.1233,100.6575,54.9212,305.1058,0,U,59600,999,1362,0,-.12E-6,0
GSAT0232 (GALILEO 32),2024-167A,2026-07-04T05:58:05.193408,1.70474324,.00062815,55.1817,220.8459,229.1002,130.6534,0,U,61182,999,1116,0,.74E-6,0
GSAT0226 (GALILEO 31),2024-167B,2026-07-04T21:01:40.357920,1.70474257,.00031753,55.1802,220.8355,232.7288,243.4657,0,U,61183,999,1115,0,.75E-6,0
BEIDOU-3 M25 (C47),2024-168B,2026-07-04T13:57:10.602144,1.86230207,.000327,54.4572,301.6389,294.5625,25.3198,0,U,61186,999,1210,0,-.59E-6,0
BEIDOU-3 M27 (C49),2024-168C,2026-07-04T23:27:13.739904,1.86230248,.00010987,54.4521,301.6079,47.0603,313.2643,0,U,61187,999,959,0,-.59E-6,0
GPS BIII-7  (PRN 01),2024-242A,2026-06-29T19:34:38.856864,2.00572141,.00176262,54.8437,333.6698,4.4449,3.3802,0,U,62339,999,1151,0,-.94E-6,0
QZS-6 (QZSS/PRN 200),2025-023A,2026-07-05T14:36:07.146720,1.00270433,.00019718,0.0372,288.7846,192.4013,111.9733,0,U,62876,999,513,0,-.219E-5,0
COSMOS 2584 (704K),2025-042A,2026-07-04T12:04:02.572320,2.13103855,.00060594,65.0947,72.2135,222.1818,137.8396,0,U,63130,999,1041,0,-.1E-6,0
GPS BIII-8  (PRN 21),2025-116A,2026-07-05T06:48:38.649888,2.00574675,.00083354,55.2485,30.4032,339.8111,199.4440,0,U,64202,999,823,0,-.58E-6,0
COSMOS 2596 (708K),2025-206B,2026-07-04T02:44:57.844896,2.13100941,.0011142,64.6242,314.3970,309.2417,229.0730,0,U,65590,999,627,0,-.45E-6,0
GSAT0233 (GALILEO 33),2025-302A,2026-07-05T09:43:40.531008,1.70474055,.00008834,54.3445,101.6128,184.8795,352.5837,0,U,67160,999,343,0,0,0
GSAT0234 (GALILEO 34),2025-302C,2026-07-03T22:36:11.607264,1.70474143,.0002335,54.3462,101.6534,315.3055,224.0559,0,U,67162,999,346,0,-.3E-7,0
GPS BIII-9  (PRN 20),2026-017A,2026-07-03T03:37:52.655232,2.00570852,.0021554,55.0981,88.1147,259.0421,100.7528,0,U,67588,999,43193,0,-.11E-6,0
GPS BIII-10 (PRN 13),2026-087A,2026-07-04T20:37:56.687232,2.00571858,.00206075,54.9625,207.0890,106.7384,252.2730,0,U,68791,999,118,0,.81E-6,0
